QIANFAN-132             
1 69078U 26104F   26156.28331327  .00000114  00000+0  48518-4 0  9997
2 69078  88.9863 342.9782 0004986 134.8096 225.3499 14.18147014  3397
QIANFAN-133             
1 69079U 26104G   26156.26798010  .00000121  00000+0  51104-4 0  9995
2 69079  88.9863 342.9758 0004521 144.5120 215.6371 14.19028791  3394
QIANFAN-134             
1 69080U 26104H   26156.26259401  .00000113  00000+0  47026-4 0  9992
2 69080  88.9863 342.9749 0005440 129.2735 230.8938 14.19324260  3397
QIANFAN-135             
1 69081U 26104J   26156.25790860  .00000114  00000+0  46994-4 0  9995
2 69081  88.9863 342.9744 0004362 156.5573 203.5816 14.19621733  3395
QIANFAN-136             
1 69082U 26104K   26156.25397571  .00000111  00000+0  45304-4 0  9999
2 69082  88.9862 342.9736 0004802 144.8263 215.3244 14.19914018  3398
QIANFAN-137             
1 69083U 26104L   26156.26892808  .00000118  00000+0  44030-4 0  9996
2 69083  88.9862 342.9570 0005499 138.2716 221.8897 14.25196375  3401
QIANFAN-138             
1 69084U 26104M   26156.24263211  .00000116  00000+0  47241-4 0  9990
2 69084  88.9863 342.9719 0004346 146.6472 213.4993 14.20801597  3396
QIANFAN-139             
1 69085U 26104N   26156.23797991  .00000128  00000+0  52380-4 0  9990
2 69085  88.9863 342.9713 0004276 136.8860 223.2666 14.21102357  3390
QIANFAN-140             
1 69086U 26104P   26156.30403901  .00000116  00000+0  46371-4 0  9994
2 69086  88.9863 342.9624 0004336 141.3717 218.7784 14.21391955  3407
QIANFAN-141             
1 69087U 26104Q   26156.30004873  .00000113  00000+0  44815-4 0  9998
2 69087  88.9863 342.9617 0003957 137.4222 222.7276 14.21633346  3409
QIANFAN-142             
1 69088U 26104R   26156.29513336  .00000110  00000+0  43057-4 0  9990
2 69088  88.9863 342.9609 0005197 129.3771 230.7881 14.21952140  3405
QIANFAN-143             
1 69089U 26104S   26156.28315080  .00000114  00000+0  44104-4 0  9994
2 69089  88.9862 342.9591 0004497 131.2065 228.9516 14.23170704  3409
QIANFAN-144             
1 69090U 26104T   26156.28855810  .00000117  00000+0  46021-4 0  9999
2 69090  88.9862 342.9600 0003872 122.5573 237.5993 14.22581485  3401
ZHUQUE-2E R/B           
1 69095U 26105A   26156.18413036  .00185388 -76242-6  45699-3 0  9996
2 69095  88.9715 195.9011 0462237 344.2735  14.4536 15.13745133  3332
2026-106A               
1 69097U 26106A   26155.63137572  .00009052  00000+0  54389-3 0  9996
2 69097  97.5095 237.9435 0013466 203.5034 156.5582 15.11037132  3085
2026-106B               
1 69098U 26106B   26155.63675397  .00006796  00000+0  42602-3 0  9996
2 69098  97.5082 237.9319 0014266 199.5733 160.4950 15.09575067  3086
2026-106C               
1 69099U 26106C   26155.63084001  .00008876  00000+0  53278-3 0  9995
2 69099  97.5097 237.9445 0013554 204.3760 155.6830 15.11076088  3082
2026-106D               
1 69100U 26106D   26155.62912235  .00008260  00000+0  49447-3 0  9996
2 69100  97.5062 237.9411 0013122 207.0214 153.0334 15.11202473  3085
2026-106E               
1 69101U 26106E   26155.62529263  .00009128  00000+0  54175-3 0  9990
2 69101  97.5073 237.9468 0015124 208.9127 151.1267 15.11460406  3083
DRAGON CRS-34           
1 69103U 26107A   26156.06378630  .00007786  00000+0  14618-3 0  9998
2 69103  51.6329   0.1115 0007002 133.6992 226.4578 15.49608794569341
QIANFAN-145             
1 69104U 26108A   26156.25835024  .00000307  00000+0  14818-3 0  9990
2 69104  89.0120  23.5491 0015442 151.1467 209.0578 14.16075681  2650
QIANFAN-146             
1 69105U 26108B   26156.26972676  .00000357  00000+0  15079-3 0  9992
2 69105  89.0123  23.5329 0015742 149.7119 210.4986 14.23383357  2664
QIANFAN-147             
1 69106U 26108C   26156.24607739  .00000312  00000+0  14801-3 0  9999
2 69106  89.0119  23.5470 0015424 148.2599 211.9523 14.17032467  2658
QIANFAN-148             
1 69107U 26108D   26156.24047664  .00000307  00000+0  14442-3 0  9990
2 69107  89.0120  23.5464 0015914 153.2623 206.9390 14.17401588  2652
QIANFAN-149             
1 69108U 26108E   26156.23826477  .00000318  00000+0  14840-3 0  9991
2 69108  89.0122  23.5465 0015571 152.5118 207.6897 14.17856139  2652
QIANFAN-150             
1 69109U 26108F   26156.23045576  .00000309  00000+0  14303-3 0  9999
2 69109  89.0123  23.5455 0015591 154.2758 205.9210 14.18304629  2657
QIANFAN-151             
1 69110U 26108G   26156.22545922  .00000333  00000+0  15299-3 0  9992
2 69110  89.0122  23.5446 0015707 152.8183 207.3832 14.18800245  2654
QIANFAN-152             
1 69111U 26108H   26156.15094361  .00000324  00000+0  14707-3 0  9994
2 69111  89.0121  23.5517 0014916 152.9435 207.2536 14.19417519  2643
