OBJECT_NAME,OBJECT_ID,EPOCH,MEAN_MOTION,ECCENTRICITY,INCLINATION,RA_OF_ASC_NODE,ARG_OF_PERICENTER,MEAN_ANOMALY,EPHEMERIS_TYPE,CLASSIFICATION_TYPE,NORAD_CAT_ID,ELEMENT_SET_NO,REV_AT_EPOCH,BSTAR,MEAN_MOTION_DOT,MEAN_MOTION_DDOT
QIANFAN-132,2026-104F,2026-06-05T06:47:58.266528,14.18147014,.00049864,88.9863,342.9782,134.8096,225.3499,0,U,69078,999,339,.48517948E-4,.114E-5,0
QIANFAN-133,2026-104G,2026-06-05T06:25:53.480640,14.19028791,.00045217,88.9863,342.9758,144.5120,215.6371,0,U,69079,999,339,.51104014E-4,.121E-5,0
QIANFAN-134,2026-104H,2026-06-05T06:18:08.122464,14.19324260,.00054407,88.9863,342.9749,129.2735,230.8938,0,U,69080,999,339,.4702625E-4,.113E-5,0
QIANFAN-135,2026-104J,2026-06-05T06:11:23.303040,14.19621733,.00043625,88.9863,342.9744,156.5573,203.5816,0,U,69081,999,339,.46994365E-4,.114E-5,0
QIANFAN-136,2026-104K,2026-06-05T06:05:43.501344,14.19914018,.00048028,88.9862,342.9736,144.8263,215.3244,0,U,69082,999,339,.45303672E-4,.111E-5,0
QIANFAN-137,2026-104L,2026-06-05T06:27:15.386112,14.25196375,.00054991,88.9862,342.9570,138.2716,221.8897,0,U,69083,999,340,.44029678E-4,.118E-5,0
QIANFAN-138,2026-104M,2026-06-05T05:49:23.414304,14.20801597,.00043467,88.9863,342.9719,146.6472,213.4993,0,U,69084,999,339,.47240965E-4,.116E-5,0
QIANFAN-139,2026-104N,2026-06-05T05:42:41.464224,14.21102357,.00042762,88.9863,342.9713,136.8860,223.2666,0,U,69085,999,339,.5238006E-4,.128E-5,0
QIANFAN-140,2026-104P,2026-06-05T07:17:48.970464,14.21391955,.00043361,88.9863,342.9624,141.3717,218.7784,0,U,69086,999,340,.46371274E-4,.116E-5,0
QIANFAN-141,2026-104Q,2026-06-05T07:12:04.210272,14.21633346,.00039577,88.9863,342.9617,137.4222,222.7276,0,U,69087,999,340,.44814778E-4,.113E-5,0
QIANFAN-142,2026-104R,2026-06-05T07:04:59.522304,14.21952140,.00051971,88.9863,342.9609,129.3771,230.7881,0,U,69088,999,340,.43057195E-4,.11E-5,0
QIANFAN-143,2026-104S,2026-06-05T06:47:44.229120,14.23170704,.00044973,88.9862,342.9591,131.2065,228.9516,0,U,69089,999,340,.44103583E-4,.114E-5,0
QIANFAN-144,2026-104T,2026-06-05T06:55:31.419840,14.22581485,.00038725,88.9862,342.9600,122.5573,237.5993,0,U,69090,999,340,.46021226E-4,.117E-5,0
ZHUQUE-2E R/B,2026-105A,2026-06-05T04:25:08.863104,15.13745133,.04622376,88.9715,195.9011,344.2735,14.4536,0,U,69095,999,333,.45699234E-3,.185388E-2,-.76242E-6
2026-106A,2026-106A,2026-06-04T15:09:10.862208,15.11037132,.0013466,97.5095,237.9435,203.5034,156.5582,0,U,69097,999,308,.543886E-3,.9052E-4,0
2026-106B,2026-106B,2026-06-04T15:16:55.543008,15.09575067,.00142668,97.5082,237.9319,199.5733,160.4950,0,U,69098,999,308,.42602016E-3,.6796E-4,0
2026-106C,2026-106C,2026-06-04T15:08:24.576864,15.11076088,.00135546,97.5097,237.9445,204.3760,155.6830,0,U,69099,999,308,.53277866E-3,.8876E-4,0
2026-106D,2026-106D,2026-06-04T15:05:56.171040,15.11202473,.00131226,97.5062,237.9411,207.0214,153.0334,0,U,69100,999,308,.49447297E-3,.826E-4,0
2026-106E,2026-106E,2026-06-04T15:00:25.283232,15.11460406,.0015124,97.5073,237.9468,208.9127,151.1267,0,U,69101,999,308,.54174936E-3,.9128E-4,0
DRAGON CRS-34,2026-107A,2026-06-05T01:31:51.136320,15.49608794,.00070026,51.6329,0.1115,133.6992,226.4578,0,U,69103,999,56934,.14618279E-3,.7786E-4,0
QIANFAN-145,2026-108A,2026-06-05T06:12:01.460736,14.16075681,.00154428,89.0120,23.5491,151.1467,209.0578,0,U,69104,999,265,.14817628E-3,.307E-5,0
QIANFAN-146,2026-108B,2026-06-05T06:28:24.392064,14.23383357,.00157428,89.0123,23.5329,149.7119,210.4986,0,U,69105,999,266,.15079429E-3,.357E-5,0
QIANFAN-147,2026-108C,2026-06-05T05:54:21.086496,14.17032467,.00154249,89.0119,23.5470,148.2599,211.9523,0,U,69106,999,265,.14801469E-3,.312E-5,0
QIANFAN-148,2026-108D,2026-06-05T05:46:17.181696,14.17401588,.00159143,89.0120,23.5464,153.2623,206.9390,0,U,69107,999,265,.14441635E-3,.307E-5,0
QIANFAN-149,2026-108E,2026-06-05T05:43:06.076128,14.17856139,.0015571,89.0122,23.5465,152.5118,207.6897,0,U,69108,999,265,.14839904E-3,.318E-5,0
QIANFAN-150,2026-108F,2026-06-05T05:31:51.377664,14.18304629,.00155919,89.0123,23.5455,154.2758,205.9210,0,U,69109,999,265,.14302677E-3,.309E-5,0
QIANFAN-151,2026-108G,2026-06-05T05:24:39.676608,14.18800245,.00157077,89.0122,23.5446,152.8183,207.3832,0,U,69110,999,265,.152985E-3,.333E-5,0
QIANFAN-152,2026-108H,2026-06-05T03:37:21.527904,14.19417519,.00149166,89.0121,23.5517,152.9435,207.2536,0,U,69111,999,264,.14706746E-3,.324E-5,0
